1 25789U 99034A   08001.47409562 -.00000026  00000-0  71217-5 0   423
2 25789  98.6329 191.5311 0001257  52.5017 307.6292 14.26764394444496
